[{"OBJECT_NAME":"JILIN-1","OBJECT_ID":"2015-057D","EPOCH":"2026-03-09T23:20:41.450208","MEAN_MOTION":14.7799363,"ECCENTRICITY":0.00159161,"INCLINATION":97.6518,"RA_OF_ASC_NODE":73.2783,"ARG_OF_PERICENTER":222.7613,"MEAN_ANOMALY":137.2362,"EPHEMERIS_TYPE":0,"CLASSIFICATION_TYPE":"U","NORAD_CAT_ID":40961,"ELEMENT_SET_NO":999,"REV_AT_EPOCH":56095,"BSTAR":0.00014277196,"MEAN_MOTION_DOT":9.83e-6,"MEAN_MOTION_DDOT":0},{"OBJECT_NAME":"KUIPER-00076","OBJECT_ID":"2025-151H","EPOCH":"2026-03-09T19:47:59.739936","MEAN_MOTION":14.80522013,"ECCENTRICITY":7.688e-5,"INCLINATION":51.9006,"RA_OF_ASC_NODE":292.379,"ARG_OF_PERICENTER":25.0802,"MEAN_ANOMALY":335.0198,"EPHEMERIS_TYPE":0,"CLASSIFICATION_TYPE":"U","NORAD_CAT_ID":64823,"ELEMENT_SET_NO":999,"REV_AT_EPOCH":3543,"BSTAR":0.00061277235,"MEAN_MOTION_DOT":4.518e-5,"MEAN_MOTION_DDOT":0}]
